[{"OBJECT_NAME":"STARLINK-36995","OBJECT_ID":"2026-049B","EPOCH":"2026-04-10T00:44:35.647296","MEAN_MOTION":15.75212334,"ECCENTRICITY":0.00011575,"INCLINATION":97.2847,"RA_OF_ASC_NODE":120.8491,"ARG_OF_PERICENTER":83.4455,"MEAN_ANOMALY":276.6942,"EPHEMERIS_TYPE":0,"CLASSIFICATION_TYPE":"U","NORAD_CAT_ID":68143,"ELEMENT_SET_NO":999,"REV_AT_EPOCH":435,"BSTAR":0.00081505682,"MEAN_MOTION_DOT":0.0012333,"MEAN_MOTION_DDOT":0},{"OBJECT_NAME":"STARLINK-37020","OBJECT_ID":"2026-049C","EPOCH":"2026-04-10T00:30:52.460064","MEAN_MOTION":15.75203655,"ECCENTRICITY":0.00015128,"INCLINATION":97.2843,"RA_OF_ASC_NODE":120.8626,"ARG_OF_PERICENTER":84.6019,"MEAN_ANOMALY":275.5419,"EPHEMERIS_TYPE":0,"CLASSIFICATION_TYPE":"U","NORAD_CAT_ID":68144,"ELEMENT_SET_NO":999,"REV_AT_EPOCH":435,"BSTAR":0.00081296866,"MEAN_MOTION_DOT":0.00122964,"MEAN_MOTION_DDOT":0},{"OBJECT_NAME":"STARLINK-36244","OBJECT_ID":"2026-049D","EPOCH":"2026-04-10T07:10:19.490016","MEAN_MOTION":15.75333727,"ECCENTRICITY":0.00027325,"INCLINATION":97.2854,"RA_OF_ASC_NODE":121.0969,"ARG_OF_PERICENTER":113.7032,"MEAN_ANOMALY":246.452,"EPHEMERIS_TYPE":0,"CLASSIFICATION_TYPE":"U","NORAD_CAT_ID":68145,"ELEMENT_SET_NO":999,"REV_AT_EPOCH":439,"BSTAR":0.0020197113,"MEAN_MOTION_DOT":0.00314442,"MEAN_MOTION_DDOT":0},{"OBJECT_NAME":"STARLINK-36980","OBJECT_ID":"2026-049E","EPOCH":"2026-04-10T07:31:30.352800","MEAN_MOTION":15.80945765,"ECCENTRICITY":0.00014257,"INCLINATION":97.2844,"RA_OF_ASC_NODE":121.2321,"ARG_OF_PERICENTER":113.6102,"MEAN_ANOMALY":246.5316,"EPHEMERIS_TYPE":0,"CLASSIFICATION_TYPE":"U","NORAD_CAT_ID":68146,"ELEMENT_SET_NO":999,"REV_AT_EPOCH":440,"BSTAR":0.0013106604,"MEAN_MOTION_DOT":0.00260077,"MEAN_MOTION_DDOT":0},{"OBJECT_NAME":"STARLINK-37055","OBJECT_ID":"2026-049F","EPOCH":"2026-04-10T06:00:00.999648","MEAN_MOTION":15.75276741,"ECCENTRICITY":9.198e-5,"INCLINATION":97.2842,"RA_OF_ASC_NODE":121.1536,"ARG_OF_PERICENTER":69.3458,"MEAN_ANOMALY":262.0052,"EPHEMERIS_TYPE":0,"CLASSIFICATION_TYPE":"U","NORAD_CAT_ID":68147,"ELEMENT_SET_NO":999,"REV_AT_EPOCH":569,"BSTAR":-0.001003211,"MEAN_MOTION_DOT":-0.00147755,"MEAN_MOTION_DDOT":0},{"OBJECT_NAME":"STARLINK-36981","OBJECT_ID":"2026-049G","EPOCH":"2026-04-10T06:00:00.999648","MEAN_MOTION":15.75240319,"ECCENTRICITY":0.00012227,"INCLINATION":97.2843,"RA_OF_ASC_NODE":121.1574,"ARG_OF_PERICENTER":86.9403,"MEAN_ANOMALY":256.4371,"EPHEMERIS_TYPE":0,"CLASSIFICATION_TYPE":"U","NORAD_CAT_ID":68148,"ELEMENT_SET_NO":999,"REV_AT_EPOCH":569,"BSTAR":-0.000924671,"MEAN_MOTION_DOT":-0.00136171,"MEAN_MOTION_DDOT":0},{"OBJECT_NAME":"STARLINK-36992","OBJECT_ID":"2026-049H","EPOCH":"2026-04-10T06:00:00.999648","MEAN_MOTION":15.75217353,"ECCENTRICITY":0.00012718,"INCLINATION":97.2845,"RA_OF_ASC_NODE":121.1632,"ARG_OF_PERICENTER":80.2505,"MEAN_ANOMALY":275.1427,"EPHEMERIS_TYPE":0,"CLASSIFICATION_TYPE":"U","NORAD_CAT_ID":68149,"ELEMENT_SET_NO":999,"REV_AT_EPOCH":569,"BSTAR":-0.00068208088,"MEAN_MOTION_DOT":-0.00100794,"MEAN_MOTION_DDOT":0},{"OBJECT_NAME":"STARLINK-37060","OBJECT_ID":"2026-049J","EPOCH":"2026-04-10T07:46:55.587072","MEAN_MOTION":15.75236662,"ECCENTRICITY":0.00016166,"INCLINATION":97.2842,"RA_OF_ASC_NODE":121.2169,"ARG_OF_PERICENTER":114.5858,"MEAN_ANOMALY":245.5576,"EPHEMERIS_TYPE":0,"CLASSIFICATION_TYPE":"U","NORAD_CAT_ID":68150,"ELEMENT_SET_NO":999,"REV_AT_EPOCH":440,"BSTAR":0.00069916682,"MEAN_MOTION_DOT":0.00105669,"MEAN_MOTION_DDOT":0},{"OBJECT_NAME":"STARLINK-37073","OBJECT_ID":"2026-049K","EPOCH":"2026-04-10T03:39:25.581888","MEAN_MOTION":15.75278788,"ECCENTRICITY":0.00014249,"INCLINATION":97.2841,"RA_OF_ASC_NODE":120.9904,"ARG_OF_PERICENTER":67.9661,"MEAN_ANOMALY":292.1755,"EPHEMERIS_TYPE":0,"CLASSIFICATION_TYPE":"U","NORAD_CAT_ID":68151,"ELEMENT_SET_NO":999,"REV_AT_EPOCH":437,"BSTAR":0.0015849865,"MEAN_MOTION_DOT":0.00244099,"MEAN_MOTION_DDOT":0},{"OBJECT_NAME":"STARLINK-37049","OBJECT_ID":"2026-049L","EPOCH":"2026-04-10T00:24:46.652832","MEAN_MOTION":15.75292093,"ECCENTRICITY":0.0001591,"INCLINATION":97.2841,"RA_OF_ASC_NODE":120.868,"ARG_OF_PERICENTER":129.6849,"MEAN_ANOMALY":230.4557,"EPHEMERIS_TYPE":0,"CLASSIFICATION_TYPE":"U","NORAD_CAT_ID":68152,"ELEMENT_SET_NO":999,"REV_AT_EPOCH":435,"BSTAR":0.0016704022,"MEAN_MOTION_DOT":0.00257827,"MEAN_MOTION_DDOT":0},{"OBJECT_NAME":"STARLINK-37072","OBJECT_ID":"2026-049M","EPOCH":"2026-04-10T03:44:30.451200","MEAN_MOTION":15.75275407,"ECCENTRICITY":0.00014563,"INCLINATION":97.2846,"RA_OF_ASC_NODE":120.9862,"ARG_OF_PERICENTER":76.2705,"MEAN_ANOMALY":283.8722,"EPHEMERIS_TYPE":0,"CLASSIFICATION_TYPE":"U","NORAD_CAT_ID":68153,"ELEMENT_SET_NO":999,"REV_AT_EPOCH":437,"BSTAR":0.0014722538,"MEAN_MOTION_DOT":0.00226217,"MEAN_MOTION_DDOT":0},{"OBJECT_NAME":"STARLINK-36241","OBJECT_ID":"2026-049N","EPOCH":"2026-04-10T04:01:46.975584","MEAN_MOTION":15.75222937,"ECCENTRICITY":0.00011418,"INCLINATION":97.2856,"RA_OF_ASC_NODE":120.9686,"ARG_OF_PERICENTER":115.6366,"MEAN_ANOMALY":244.5018,"EPHEMERIS_TYPE":0,"CLASSIFICATION_TYPE":"U","NORAD_CAT_ID":68154,"ELEMENT_SET_NO":999,"REV_AT_EPOCH":437,"BSTAR":0.0012911863,"MEAN_MOTION_DOT":0.00197253,"MEAN_MOTION_DDOT":0},{"OBJECT_NAME":"STARLINK-37048","OBJECT_ID":"2026-049P","EPOCH":"2026-04-10T06:00:00.999648","MEAN_MOTION":15.76609292,"ECCENTRICITY":0.00012771,"INCLINATION":97.285,"RA_OF_ASC_NODE":121.1816,"ARG_OF_PERICENTER":84.4298,"MEAN_ANOMALY":314.0283,"EPHEMERIS_TYPE":0,"CLASSIFICATION_TYPE":"U","NORAD_CAT_ID":68155,"ELEMENT_SET_NO":999,"REV_AT_EPOCH":569,"BSTAR":-0.012284541,"MEAN_MOTION_DOT":-0.01723025,"MEAN_MOTION_DDOT":0},{"OBJECT_NAME":"STARLINK-36313","OBJECT_ID":"2026-049Q","EPOCH":"2026-04-10T07:44:23.083296","MEAN_MOTION":15.75259083,"ECCENTRICITY":0.0001506,"INCLINATION":97.2848,"RA_OF_ASC_NODE":121.2186,"ARG_OF_PERICENTER":115.7356,"MEAN_ANOMALY":244.4064,"EPHEMERIS_TYPE":0,"CLASSIFICATION_TYPE":"U","NORAD_CAT_ID":68156,"ELEMENT_SET_NO":999,"REV_AT_EPOCH":440,"BSTAR":0.001013776,"MEAN_MOTION_DOT":0.00154305,"MEAN_MOTION_DDOT":0},{"OBJECT_NAME":"STARLINK-37064","OBJECT_ID":"2026-049R","EPOCH":"2026-04-10T06:00:00.999648","MEAN_MOTION":15.7531031,"ECCENTRICITY":5.265e-5,"INCLINATION":97.2845,"RA_OF_ASC_NODE":121.1672,"ARG_OF_PERICENTER":81.3017,"MEAN_ANOMALY":286.0359,"EPHEMERIS_TYPE":0,"CLASSIFICATION_TYPE":"U","NORAD_CAT_ID":68157,"ELEMENT_SET_NO":999,"REV_AT_EPOCH":569,"BSTAR":-0.0015700904,"MEAN_MOTION_DOT":-0.00229318,"MEAN_MOTION_DDOT":0},{"OBJECT_NAME":"STARLINK-37069","OBJECT_ID":"2026-049S","EPOCH":"2026-04-10T00:53:44.546496","MEAN_MOTION":15.75213271,"ECCENTRICITY":9.66e-5,"INCLINATION":97.2852,"RA_OF_ASC_NODE":120.84,"ARG_OF_PERICENTER":63.9844,"MEAN_ANOMALY":296.1521,"EPHEMERIS_TYPE":0,"CLASSIFICATION_TYPE":"U","NORAD_CAT_ID":68158,"ELEMENT_SET_NO":999,"REV_AT_EPOCH":435,"BSTAR":0.00087743472,"MEAN_MOTION_DOT":0.00132934,"MEAN_MOTION_DDOT":0}]
