STARLINK-36995          
1 68143U 26049B   26100.03096814  .00123330  00000+0  81506-3 0  9997
2 68143  97.2847 120.8491 0001157  83.4455 276.6942 15.75212334  4350
STARLINK-37020          
1 68144U 26049C   26100.02144051  .00122964  00000+0  81297-3 0  9993
2 68144  97.2843 120.8626 0001512  84.6019 275.5419 15.75203655  4354
STARLINK-36244          
1 68145U 26049D   26100.29883669  .00314442  00000+0  20197-2 0  9993
2 68145  97.2854 121.0969 0002732 113.7032 246.4520 15.75333727  4392
STARLINK-36980          
1 68146U 26049E   26100.31354575  .00260077  00000+0  13107-2 0  9993
2 68146  97.2844 121.2321 0001425 113.6102 246.5316 15.80945765  4404
STARLINK-37055          
1 68147U 26049F   26100.25001157 -.00147755  00000+0 -10032-2 0  9995
2 68147  97.2842 121.1536 0000919  69.3458 262.0052 15.75276741  5695
STARLINK-36981          
1 68148U 26049G   26100.25001157 -.00136171  00000+0 -92467-3 0  9999
2 68148  97.2843 121.1574 0001222  86.9403 256.4371 15.75240319  5695
STARLINK-36992          
1 68149U 26049H   26100.25001157 -.00100794  00000+0 -68208-3 0  9998
2 68149  97.2845 121.1632 0001271  80.2505 275.1427 15.75217353  5699
STARLINK-37060          
1 68150U 26049J   26100.32425448  .00105669  00000+0  69917-3 0  9993
2 68150  97.2842 121.2169 0001616 114.5858 245.5576 15.75236662  4407
STARLINK-37073          
1 68151U 26049K   26100.15237942  .00244099  00000+0  15850-2 0  9992
2 68151  97.2841 120.9904 0001424  67.9661 292.1755 15.75278788  4378
STARLINK-37049          
1 68152U 26049L   26100.01720663  .00257827  00000+0  16704-2 0  9997
2 68152  97.2841 120.8680 0001591 129.6849 230.4557 15.75292093  4356
STARLINK-37072          
1 68153U 26049M   26100.15590800  .00226217  00000+0  14723-2 0  9999
2 68153  97.2846 120.9862 0001456  76.2705 283.8722 15.75275407  4371
STARLINK-36241          
1 68154U 26049N   26100.16790481  .00197253  00000+0  12912-2 0  9993
2 68154  97.2856 120.9686 0001141 115.6366 244.5018 15.75222937  4371
STARLINK-37048          
1 68155U 26049P   26100.25001157 -.01723025  00000+0 -12285-1 0  9996
2 68155  97.2850 121.1816 0001277  84.4298 314.0283 15.76609292  5698
STARLINK-36313          
1 68156U 26049Q   26100.32248939  .00154305  00000+0  10138-2 0  9998
2 68156  97.2848 121.2186 0001506 115.7356 244.4064 15.75259083  4404
STARLINK-37064          
1 68157U 26049R   26100.25001157 -.00229318  00000+0 -15701-2 0  9990
2 68157  97.2845 121.1672 0000526  81.3017 286.0359 15.75310310  5696
STARLINK-37069          
1 68158U 26049S   26100.03732114  .00132934  00000+0  87743-3 0  9992
2 68158  97.2852 120.8400 0000966  63.9844 296.1521 15.75213271  4355
